{
  "type": "FeatureCollection",
  "features": [
    {
      "type": "Feature",
      "properties": {
        "norad_id": 43719,
        "name": "HYSIS",
        "group": "resource",
        "lat": -55.02323295463631,
        "lon": -142.14704688601503,
        "alt_km": 641.6062518003982,
        "timestamp": "2025-12-12T11:38:31.073933+00:00",
        "meta_object_name": "HYSIS",
        "meta_object_id": "2018-096A",
        "meta_epoch": "2025-12-12T04:04:57.287136",
        "meta_mean_motion": 14.78644806,
        "meta_eccentricity": 0.0001373,
        "meta_inclination": 98.0093,
        "meta_ra_of_asc_node": 49.1501,
        "meta_arg_of_pericenter": 57.4824,
        "meta_mean_anomaly": 302.6519,
        "meta_ephemeris_type": 0,
        "meta_classification_type": "U",
        "meta_norad_cat_id": 43719,
        "meta_element_set_no": 999,
        "meta_rev_at_epoch": 37978,
        "meta_bstar": 0.00038252,
        "meta_mean_motion_dot": 2.75e-05,
        "meta_mean_motion_ddot": 0,
        "tle_line1": "1 43719U 18096A   25346.17010749  .00002750  00000+0  38252-3 0  9993",
        "tle_line2": "2 43719  98.0093  49.1501 0001373  57.4824 302.6519 14.78644806379787"
      },
      "geometry": {
        "type": "Point",
        "coordinates": [
          -142.14704688601503,
          -55.02323295463631
        ]
      }
    },
    {
      "type": "Feature",
      "properties": {
        "norad_id": 43783,
        "name": "KAZSTSAT",
        "group": "resource",
        "lat": 81.93805117903588,
        "lon": -90.7153460452493,
        "alt_km": 563.5894946259632,
        "timestamp": "2025-12-12T11:38:31.073943+00:00",
        "meta_object_name": "KAZSTSAT",
        "meta_object_id": "2018-099AB",
        "meta_epoch": "2025-12-12T01:37:06.339072",
        "meta_mean_motion": 14.99350068,
        "meta_eccentricity": 0.0005926,
        "meta_inclination": 97.4559,
        "meta_ra_of_asc_node": 21.2815,
        "meta_arg_of_pericenter": 333.101,
        "meta_mean_anomaly": 26.9906,
        "meta_ephemeris_type": 0,
        "meta_classification_type": "U",
        "meta_norad_cat_id": 43783,
        "meta_element_set_no": 999,
        "meta_rev_at_epoch": 38326,
        "meta_bstar": 0.00018865,
        "meta_mean_motion_dot": 2.251e-05,
        "meta_mean_motion_ddot": 0,
        "tle_line1": "1 43783U 18099AB  25346.06743448  .00002251  00000+0  18865-3 0  9998",
        "tle_line2": "2 43783  97.4559  21.2815 0005926 333.1010  26.9906 14.99350068383267"
      },
      "geometry": {
        "type": "Point",
        "coordinates": [
          -90.7153460452493,
          81.93805117903588
        ]
      }
    },
    {
      "type": "Feature",
      "properties": {
        "norad_id": 43831,
        "name": "SAUDISAT 5A",
        "group": "resource",
        "lat": 57.46154785729825,
        "lon": -121.67072220993012,
        "alt_km": 477.6039572152158,
        "timestamp": "2025-12-12T11:38:31.073953+00:00",
        "meta_object_name": "SAUDISAT 5A",
        "meta_object_id": "2018-102A",
        "meta_epoch": "2025-12-12T04:48:53.211168",
        "meta_mean_motion": 15.25647146,
        "meta_eccentricity": 0.0011756,
        "meta_inclination": 97.3353,
        "meta_ra_of_asc_node": 46.4018,
        "meta_arg_of_pericenter": 77.9921,
        "meta_mean_anomaly": 282.2634,
        "meta_ephemeris_type": 0,
        "meta_classification_type": "U",
        "meta_norad_cat_id": 43831,
        "meta_element_set_no": 999,
        "meta_rev_at_epoch": 38714,
        "meta_bstar": 0.00039018,
        "meta_mean_motion_dot": 9.878e-05,
        "meta_mean_motion_ddot": 0,
        "tle_line1": "1 43831U 18102A   25346.20061587  .00009878  00000+0  39018-3 0  9995",
        "tle_line2": "2 43831  97.3353  46.4018 0011756  77.9921 282.2634 15.25647146387140"
      },
      "geometry": {
        "type": "Point",
        "coordinates": [
          -121.67072220993012,
          57.46154785729825
        ]
      }
    },
    {
      "type": "Feature",
      "properties": {
        "norad_id": 43833,
        "name": "SAUDISAT 5B",
        "group": "resource",
        "lat": 6.131505804335472,
        "lon": -129.78702780668908,
        "alt_km": 490.6830083092509,
        "timestamp": "2025-12-12T11:38:31.073964+00:00",
        "meta_object_name": "SAUDISAT 5B",
        "meta_object_id": "2018-102C",
        "meta_epoch": "2025-12-12T04:35:21.984288",
        "meta_mean_motion": 15.26000432,
        "meta_eccentricity": 0.0012474,
        "meta_inclination": 97.3448,
        "meta_ra_of_asc_node": 49.1303,
        "meta_arg_of_pericenter": 80.2742,
        "meta_mean_anomaly": 279.9905,
        "meta_ephemeris_type": 0,
        "meta_classification_type": "U",
        "meta_norad_cat_id": 43833,
        "meta_element_set_no": 999,
        "meta_rev_at_epoch": 38725,
        "meta_bstar": 0.00044533,
        "meta_mean_motion_dot": 0.0001141,
        "meta_mean_motion_ddot": 0,
        "tle_line1": "1 43833U 18102C   25346.19122667  .00011410  00000+0  44533-3 0  9995",
        "tle_line2": "2 43833  97.3448  49.1303 0012474  80.2742 279.9905 15.26000432387258"
      },
      "geometry": {
        "type": "Point",
        "coordinates": [
          -129.78702780668908,
          6.131505804335472
        ]
      }
    },
    {
      "type": "Feature",
      "properties": {
        "norad_id": 44622,
        "name": "GAOFEN-10R",
        "group": "resource",
        "lat": 23.22239719917613,
        "lon": 117.46176115057449,
        "alt_km": 622.3362837369359,
        "timestamp": "2025-12-12T11:38:31.073974+00:00",
        "meta_object_name": "GAOFEN-10R",
        "meta_object_id": "2019-066A",
        "meta_epoch": "2025-12-12T04:27:40.381920",
        "meta_mean_motion": 14.82789828,
        "meta_eccentricity": 0.0007923,
        "meta_inclination": 98.0276,
        "meta_ra_of_asc_node": 293.6899,
        "meta_arg_of_pericenter": 43.6891,
        "meta_mean_anomaly": 316.4948,
        "meta_ephemeris_type": 0,
        "meta_classification_type": "U",
        "meta_norad_cat_id": 44622,
        "meta_element_set_no": 999,
        "meta_rev_at_epoch": 33466,
        "meta_bstar": 0.00035673,
        "meta_mean_motion_dot": 2.832e-05,
        "meta_mean_motion_ddot": 0,
        "tle_line1": "1 44622U 19066A   25346.18588405  .00002832  00000+0  35673-3 0  9990",
        "tle_line2": "2 44622  98.0276 293.6899 0007923  43.6891 316.4948 14.82789828334664"
      },
      "geometry": {
        "type": "Point",
        "coordinates": [
          117.46176115057449,
          23.22239719917613
        ]
      }
    },
    {
      "type": "Feature",
      "properties": {
        "norad_id": 44804,
        "name": "CARTOSAT-3",
        "group": "resource",
        "lat": -72.06615864744376,
        "lon": 69.94960479595836,
        "alt_km": 524.7793662905051,
        "timestamp": "2025-12-12T11:38:31.073984+00:00",
        "meta_object_name": "CARTOSAT-3",
        "meta_object_id": "2019-081A",
        "meta_epoch": "2025-12-12T05:38:34.173600",
        "meta_mean_motion": 15.1914847,
        "meta_eccentricity": 0.0014215,
        "meta_inclination": 97.4585,
        "meta_ra_of_asc_node": 45.825,
        "meta_arg_of_pericenter": 85.0376,
        "meta_mean_anomaly": 275.2481,
        "meta_ephemeris_type": 0,
        "meta_classification_type": "U",
        "meta_norad_cat_id": 44804,
        "meta_element_set_no": 999,
        "meta_rev_at_epoch": 33508,
        "meta_bstar": 0.00044037,
        "meta_mean_motion_dot": 9.214e-05,
        "meta_mean_motion_ddot": 0,
        "tle_line1": "1 44804U 19081A   25346.23511775  .00009214  00000+0  44037-3 0  9996",
        "tle_line2": "2 44804  97.4585  45.8250 0014215  85.0376 275.2481 15.19148470335084"
      },
      "geometry": {
        "type": "Point",
        "coordinates": [
          69.94960479595836,
          -72.06615864744376
        ]
      }
    },
    {
      "type": "Feature",
      "properties": {
        "norad_id": 44819,
        "name": "GAOFEN-12 01",
        "group": "resource",
        "lat": 64.14977177115209,
        "lon": -23.68947636056885,
        "alt_km": 621.8994721346762,
        "timestamp": "2025-12-12T11:38:31.073994+00:00",
        "meta_object_name": "GAOFEN-12 01",
        "meta_object_id": "2019-082A",
        "meta_epoch": "2025-12-12T04:51:37.984608",
        "meta_mean_motion": 14.80656361,
        "meta_eccentricity": 0.0001299,
        "meta_inclination": 97.8126,
        "meta_ra_of_asc_node": 352.4976,
        "meta_arg_of_pericenter": 236.6653,
        "meta_mean_anomaly": 123.4435,
        "meta_ephemeris_type": 0,
        "meta_classification_type": "U",
        "meta_norad_cat_id": 44819,
        "meta_element_set_no": 999,
        "meta_rev_at_epoch": 32642,
        "meta_bstar": 0.00011393,
        "meta_mean_motion_dot": 8.24e-06,
        "meta_mean_motion_ddot": 0,
        "tle_line1": "1 44819U 19082A   25346.20252297  .00000824  00000+0  11393-3 0  9998",
        "tle_line2": "2 44819  97.8126 352.4976 0001299 236.6653 123.4435 14.80656361326428"
      },
      "geometry": {
        "type": "Point",
        "coordinates": [
          -23.68947636056885,
          64.14977177115209
        ]
      }
    }
  ]
}